NORAD_CAT_ID,OBJECT_NAME,OBJECT_TYPE,EPOCH,MEAN_MOTION,ECCENTRICITY,INCLINATION,RA_OF_ASC_NODE,ARG_OF_PERICENTER,MEAN_ANOMALY,BSTAR,MEAN_MOTION_DOT,MEAN_MOTION_DDOT,TLE_LINE0,TLE_LINE1,TLE_LINE2,SEMIMAJOR_AXIS,PERIOD,APOGEE,PERIGEE,DECAYED
54182.0,STARLINK-5231,PAYLOAD,2023-09-07 01:23:47,15.09002967,0.0002052,53.2156,119.8424,78.6155,281.5068,0.0008801,0.00013809,0.0,0 STARLINK-5231,1 54182U 22141AB  23250.05818807  .00013809  00000-0  88010-3 0  9990,2 54182  53.2156 119.8424 0002052  78.6155 281.5068 15.09002967 48432,6917.382,95.427,540.667,537.828,0.0
54182.0,STARLINK-5231,PAYLOAD,2023-09-07 18:52:06,15.0954423,0.0001906,53.2154,116.5703,81.9537,278.1672,0.003747,0.00061033,0.0,0 STARLINK-5231,1 54182U 22141AB  23250.78618814  .00061033  00000-0  37470-2 0  9991,2 54182  53.2154 116.5703 0001906  81.9537 278.1672 15.09544230 48541,6915.729,95.393,538.912,536.276,0.0
54182.0,STARLINK-5231,PAYLOAD,2023-09-07 20:27:26,15.09550885,0.0001585,53.2159,116.2719,81.7898,278.3274,0.0036845,0.00060012,0.0,0 STARLINK-5231,1 54182U 22141AB  23250.85239522  .00060012  00000-0  36845-2 0  9995,2 54182  53.2159 116.2719 0001585  81.7898 278.3274 15.09550885 48320,6915.708,95.393,538.669,536.477,0.0
54182.0,STARLINK-5231,PAYLOAD,2023-09-07 22:02:47,15.0956199,0.0001391,53.2165,115.9753,81.2495,278.8655,0.0036724,0.0005983,0.0,0 STARLINK-5231,1 54182U 22141AB  23250.91860017  .00059830  00000-0  36724-2 0  9993,2 54182  53.2165 115.9753 0001391  81.2495 278.8655 15.09561990 48332,6915.674,95.392,538.501,536.577,0.0
54182.0,STARLINK-5231,PAYLOAD,2023-09-08 18:42:07,15.09658233,0.0001533,53.2165,112.1052,78.4119,281.7045,0.0033846,0.00055229,0.0,0 STARLINK-5231,1 54182U 22141AB  23251.77924977  .00055229  00000-0  33846-2 0  9994,2 54182  53.2165 112.1052 0001533  78.4119 281.7045 15.09658233 48694,6915.381,95.386,538.306,536.185,0.0
54182.0,STARLINK-5231,PAYLOAD,2023-09-08 21:52:46,15.09674353,0.0001803,53.216,111.5106,74.0166,286.1025,0.0033607,0.00054859,0.0,0 STARLINK-5231,1 54182U 22141AB  23251.91164926  .00054859  00000-0  33607-2 0  9993,2 54182  53.2160 111.5106 0001803  74.0166 286.1025 15.09674353 48481,6915.331,95.385,538.443,535.949,0.0
54182.0,STARLINK-5231,PAYLOAD,2023-09-09 01:03:26,15.09701407,0.0003505,53.2162,110.9151,58.1198,302.0135,0.0032118,0.00052441,0.0,0 STARLINK-5231,1 54182U 22141AB  23252.04405134  .00052441  00000-0  32118-2 0  9998,2 54182  53.2162 110.9151 0003505  58.1198 302.0135 15.09701407 48734,6915.249,95.383,539.537,534.69,0.0
54182.0,STARLINK-5231,PAYLOAD,2023-09-09 14:00:01,15.09987232,0.00017,53.2157,108.4898,92.4166,320.8409,0.0024699,0.00040508,0.0,0 STARLINK-5231,1 54182U 22141AB  23252.58334491  .00040508  00000-0  24699-2 0  9990,2 54182  53.2157 108.4898 0001700  92.4166 320.8409 15.09987232 48812,6914.376,95.365,537.416,535.066,0.0
54182.0,STARLINK-5231,PAYLOAD,2023-09-10 06:00:00,15.10036813,0.0001637,53.2151,105.4926,86.8892,352.3625,-0.0010841,-0.00018077,0.0,0 STARLINK-5231,1 54182U 22141AB  23253.25001157 -.00018077  00000-0 -10841-2 0  9997,2 54182  53.2151 105.4926 0001637  86.8892 352.3625 15.10036813 48910,6914.225,95.362,537.221,534.958,0.0
54182.0,STARLINK-5231,PAYLOAD,2023-09-10 14:00:01,15.10024232,0.0001676,53.2152,103.9926,93.7507,358.5196,0.0017429,0.0002848,0.0,0 STARLINK-5231,1 54182U 22141AB  23253.58334491  .00028480  00000-0  17429-2 0  9999,2 54182  53.2152 103.9926 0001676  93.7507 358.5196 15.10024232  5812,6914.263,95.363,537.287,534.969,0.0
54182.0,STARLINK-5231,PAYLOAD,2023-09-10 22:00:00,15.10034342,0.0001671,53.215,102.4953,85.5096,19.7943,0.0008669,0.00013994,0.0,0 STARLINK-5231,1 54182U 22141AB  23253.91667824  .00013994  00000-0  86690-3 0  9996,2 54182  53.2150 102.4953 0001671  85.5096  19.7943 15.10034342 49010,6914.232,95.362,537.253,534.942,0.0
54182.0,STARLINK-5231,PAYLOAD,2023-09-11 13:25:15,15.10057889,0.0001572,53.2152,99.604,89.472,270.6452,0.00093884,0.00015192,0.0,0 STARLINK-5231,1 54182U 22141AB  23254.55920870  .00015192  00000-0  93884-3 0  9995,2 54182  53.2152  99.6040 0001572  89.4720 270.6452 15.10057889 48881,6914.16,95.361,537.112,534.938,0.0
54182.0,STARLINK-5231,PAYLOAD,2023-09-11 22:57:06,15.10074877,0.0001532,53.215,97.8179,89.1559,270.9609,0.0011317,0.0001839,0.0,0 STARLINK-5231,1 54182U 22141AB  23254.95632489  .00018390  00000-0  11317-2 0  9998,2 54182  53.2150  97.8179 0001532  89.1559 270.9609 15.10074877 49171,6914.108,95.36,537.033,534.914,0.0
54182.0,STARLINK-5231,PAYLOAD,2023-09-12 13:14:52,15.10096347,0.0001483,53.2147,95.1384,88.4881,271.6282,0.0011652,0.00018955,0.0,0 STARLINK-5231,1 54182U 22141AB  23255.55199244  .00018955  00000-0  11652-2 0  9991,2 54182  53.2147  95.1384 0001483  88.4881 271.6282 15.10096347 49037,6914.043,95.358,536.933,534.883,0.0
54182.0,STARLINK-5231,PAYLOAD,2023-09-12 19:36:05,15.10115415,0.000149,53.215,93.9476,87.5654,272.5509,0.0015658,0.0002561,0.0,0 STARLINK-5231,1 54182U 22141AB  23255.81672957  .00025610  00000-0  15658-2 0  9993,2 54182  53.2150  93.9476 0001490  87.5654 272.5509 15.10115415 49079,6913.985,95.357,536.88,534.82,0.0
54182.0,STARLINK-5231,PAYLOAD,2023-09-12 22:46:42,15.10120856,0.0001486,53.2149,93.3523,87.3412,272.7751,0.001556,0.00025452,0.0,0 STARLINK-5231,1 54182U 22141AB  23255.94909758  .00025452  00000-0  15560-2 0  9995,2 54182  53.2149  93.3523 0001486  87.3412 272.7751 15.10120856 49323,6913.968,95.357,536.861,534.806,0.0
54182.0,STARLINK-5231,PAYLOAD,2023-09-13 13:04:26,15.10147591,0.0001526,53.2151,90.6727,85.7744,274.3423,0.0015164,0.00024813,0.0,0 STARLINK-5231,1 54182U 22141AB  23256.54474669  .00024813  00000-0  15164-2 0  9990,2 54182  53.2151  90.6727 0001526  85.7744 274.3423 15.10147591 49180,6913.886,95.355,536.807,534.696,0.0
54182.0,STARLINK-5231,PAYLOAD,2023-09-13 17:50:20,15.10142141,0.0001267,53.2145,89.779,87.1477,272.9661,0.00079355,0.00012822,0.0,0 STARLINK-5231,1 54182U 22141AB  23256.74329536  .00012822  00000-0  79355-3 0  9994,2 54182  53.2145  89.7790 0001267  87.1477 272.9661 15.10142141 49446,6913.903,95.355,536.644,534.892,0.0
54182.0,STARLINK-5231,PAYLOAD,2023-09-13 19:25:39,15.10136006,0.0001637,53.2158,89.4815,89.7806,270.3374,0.00063228,0.00010151,0.0,0 STARLINK-5231,1 54182U 22141AB  23256.80948108  .00010151  00000-0  63228-3 0  9998,2 54182  53.2158  89.4815 0001637  89.7806 270.3374 15.10136006 49222,6913.922,95.356,536.919,534.655,0.0
54182.0,STARLINK-5231,PAYLOAD,2023-09-14 00:11:30,15.10316981,0.0001576,53.215,88.585,126.1297,233.9842,0.0066246,0.00111238,0.0,0 STARLINK-5231,1 54182U 22141AB  23257.00798682  .00111238  00000-0  66246-2 0  9991,2 54182  53.2150  88.5850 0001576 126.1297 233.9842 15.10316981 49480,6913.37,95.344,536.324,534.145,0.0
54182.0,STARLINK-5231,PAYLOAD,2023-09-14 12:53:47,15.10445693,0.000199,53.2157,86.206,81.6087,278.5131,0.0031569,0.00052608,0.0,0 STARLINK-5231,1 54182U 22141AB  23257.53735708  .00052608  00000-0  31569-2 0  9994,2 54182  53.2157  86.2060 0001990  81.6087 278.5131 15.10445693 49330,6912.977,95.336,536.217,533.466,0.0
54182.0,STARLINK-5231,PAYLOAD,2023-09-14 16:04:22,15.10435616,0.0001865,53.2156,85.6096,88.9747,271.146,0.0043297,0.00072442,0.0,0 STARLINK-5231,1 54182U 22141AB  23257.66970036  .00072442  00000-0  43297-2 0  9992,2 54182  53.2156  85.6096 0001865  88.9747 271.1460 15.10435616 49580,6913.008,95.337,536.162,533.583,0.0
54182.0,STARLINK-5231,PAYLOAD,2023-09-14 19:14:55,15.10449419,0.0001935,53.2155,85.0147,83.7619,276.3595,0.0033381,0.00055674,0.0,0 STARLINK-5231,1 54182U 22141AB  23257.80203673  .00055674  00000-0  33381-2 0  9995,2 54182  53.2155  85.0147 0001935  83.7619 276.3595 15.10449419 49378,6912.965,95.336,536.168,533.493,0.0
54182.0,STARLINK-5231,PAYLOAD,2023-09-14 22:25:29,15.10465605,0.0001928,53.2155,84.4191,82.0634,278.0578,0.0025159,0.00041826,0.0,0 STARLINK-5231,1 54182U 22141AB  23257.93437054  .00041826  00000-0  25159-2 0  9999,2 54182  53.2155  84.4191 0001928  82.0634 278.0578 15.10465605 49624,6912.916,95.335,536.114,533.448,0.0
54182.0,STARLINK-5231,PAYLOAD,2023-09-15 12:43:01,15.10480405,0.0002272,53.2158,81.7378,86.7754,273.3498,0.00030926,4.86e-05,0.0,0 STARLINK-5231,1 54182U 22141AB  23258.52987933  .00004860  00000-0  30926-3 0  9997,2 54182  53.2158  81.7378 0002272  86.7754 273.3498 15.10480405 49489,6912.871,95.334,536.306,533.165,0.0
54182.0,STARLINK-5231,PAYLOAD,2023-09-15 17:28:53,15.10467198,0.0001984,53.2155,80.8454,84.4284,275.6935,0.001154,0.00018965,0.0,0 STARLINK-5231,1 54182U 22141AB  23258.72839167  .00018965  00000-0  11540-2 0  9995,2 54182  53.2155  80.8454 0001984  84.4284 275.6935 15.10467198 49747,6912.911,95.335,536.148,533.405,0.0
54182.0,STARLINK-5231,PAYLOAD,2023-09-15 22:14:43,15.10480865,0.0002003,53.2157,79.9515,86.4646,273.6576,0.00084778,0.0001385,0.0,0 STARLINK-5231,1 54182U 22141AB  23258.92688971  .00013850  00000-0  84778-3 0  9994,2 54182  53.2157  79.9515 0002003  86.4646 273.6576 15.10480865 49771,6912.869,95.334,536.119,533.35,0.0
54182.0,STARLINK-5231,PAYLOAD,2023-09-16 04:35:51,15.10474955,0.000245,53.2166,78.7599,82.5407,277.5864,0.00018149,2.729e-05,0.0,0 STARLINK-5231,1 54182U 22141AB  23259.19156381  .00002729  00000-0  18149-3 0  9991,2 54182  53.2166  78.7599 0002450  82.5407 277.5864 15.10474955 49819,6912.887,95.334,536.446,533.059,0.0
54182.0,STARLINK-5231,PAYLOAD,2023-09-16 12:32:15,15.10479124,0.000251,53.2158,77.2706,90.1809,269.9472,0.00013348,1.93e-05,0.0,0 STARLINK-5231,1 54182U 22141AB  23259.52240216  .00001930  00000-0  13348-3 0  9998,2 54182  53.2158  77.2706 0002510  90.1809 269.9472 15.10479124 49635,6912.875,95.334,536.475,533.005,0.0
54182.0,STARLINK-5231,PAYLOAD,2023-09-17 12:21:29,15.10477412,0.0002012,53.2167,72.8041,88.8126,271.3098,7.0179e-05,8.76e-06,0.0,0 STARLINK-5231,1 54182U 22141AB  23260.51492589  .00000876  00000-0  70179-4 0  9995,2 54182  53.2167  72.8041 0002012  88.8126 271.3098 15.10477412 49786,6912.88,95.334,536.136,533.354,0.0
